#dP2020 12 27  0  0  0.00000000      96 __u+U ITR00 FIT  IAC
## 2138      0.00000000   900.00000000 59210 0.0000000000000
+  113   C01C02C03C04C05C06C07C08C09C10C11C12C13C14C16C19C20
+        C21C22C23C24C25C26C27C28C29C30C32C33C34C35C36C37E01
+        E02E03E04E05E07E08E09E11E12E13E14E15E18E19E21E24E25
+        E26E27E30E31E33E36G01G02G03G04G05G06G07G08G09G10G11
+        G12G13G14G15G16G17G18G19G20G21G22G23G24G25G26G27G28
+        G29G30G31G32J01J02J03J07R01R02R03R04R05R07R08R09R12
+        R13R14R15R16R17R18R19R20R21R22R24  0  0  0  0  0  0
++        13 14 13  0 13  8  9 13  8  8  8  8  8  8  8  8  8
++         8  8  8  8  8  8  8  8  8  8  9  8  8  8  8  8  4
++         4  4  4  4  5  5  4  5  5  5  4  4  4  5  4  4  4
++         5  4  4  5  5  4  4  4  4  4  4  4  4  3  4  4  4
++         4  4  3  4  4  4  4  4  4  4  4  3  4  4  4  4  4
++         4  4  4  4  9  8  8 14  7  6  6  6  6  6  6  6  6
++         6  6  6  6  6  6  6  6  6  7  6  0  0  0  0  0  0
%c M  cc GPS ccc cccc cccc cccc cccc ccccc ccccc ccccc ccccc
%c cc cc ccc ccc cccc cccc cccc cccc ccccc ccccc ccccc ccccc
%f  0.0000000  0.000000000  0.00000000000  0.000000000000000
%f  0.0000000  0.000000000  0.00000000000  0.000000000000000
%i    0    0    0    0      0      0      0      0         0
%i    0    0    0    0      0      0      0      0         0
/* INFORMATION & ANALYSIS CENTER (IAC)            RAPID DATA
/* S/V CLOCKS ARE ALIGNED TO GNSS TIME                      
/* G:C1WC2W R:C1PC2P E:C1XC5X C:C2IC6I J:C1CC2S             
/* PCV:IGS14_2134 OL/AL:FES2004  NONE     YN ORB:CoN CLK:CoN
*  2020 12 27  4 45  0.00000000
PC01 -34394.420135  24388.746263     18.182396   -733.462087
PC02   4458.018143  41925.800225    253.018136    640.622951
PC03 -14737.427648  39530.518725   -689.101861    274.150007
PC04      0.000000      0.000000      0.000000 999999.999999
PC05  21890.826357  36027.758968    578.375667   -395.185584
PC06 -15234.150293  21182.901263  33463.912277     86.329690
PC07 -21641.909471  35810.447819  -6845.479244   -168.813420
PC08  -4613.246246  33526.256116 -24767.945804   -832.909071
PC09   3117.789297  25882.710430  33464.118083    844.976908
PC10 -10265.590683  36676.867301 -18321.631473   -115.153645
PC11 -24971.758150 -12396.726612   1781.637329   -844.850885
PC12 -12369.296627 -17902.860805  17528.739242    691.149171
PC13   4334.366176  39530.574571 -13478.728693     71.119667
PC14 -17905.419759  -4606.423465 -20898.096432   -230.328855
PC16 -13496.386735  21221.907272  33892.489850   -641.818844
PC19  22846.627527  -4022.971342  15522.090883    668.697447
PC20  11128.587327  11449.399549  22894.660622   -910.120020
PC21   7795.680279 -20762.319600 -16918.197211   -768.969070
PC22  21642.786734 -17562.169952  -1113.974449   -826.316312
PC23 -11858.222422  16392.512997  19218.378323   -888.368388
PC24 -11126.244184 -22773.391365  11704.224792   -733.572545
PC25 -16496.793329  -3479.855911  22235.265457   -875.969962
PC26   -728.262352 -27548.613583  -4529.167195    956.505426
PC27   1860.779584  17292.641847 -21838.318402    456.181835
PC28 -17337.029567   7800.890354 -20423.060609   -129.120153
PC29  26496.074969   5185.347427   7061.265324    330.232395
PC30  20159.030363  16001.511117 -10808.313249    422.933828
PC32  -7660.787945  20846.327973  16906.779545   -881.179830
PC33 -22817.804463   4076.490997 -15548.442544   -887.400555
PC34 -20541.854131 -15848.800667  10245.014272   -777.112953
PC35  17331.914596  -8260.951937  20264.631386   -494.405751
PC36  16396.204586   4192.798950 -22165.128058   -792.921669
PC37   -459.697566  27383.917932   5300.976634   -861.995061
PE01 -12096.557301  26739.416620   3812.995577  -1011.938154
PE02  12035.716063 -26801.898956  -3697.758708    186.586702
PE03  15469.146520 -16653.466957 -18964.054240   -380.531837
PE04   6329.688226  16119.168840  24003.059243   -676.299865
PE05  28527.719321  -7418.277032  -2712.967200   -317.936642
PE07 -24810.819035  -6061.382422 -14970.482819   -479.815078
PE08  -6732.311185 -15857.543972 -24077.048313   6071.102814
PE09  24899.837830   5744.835581  14924.175340   5819.300622
PE11  22610.744443  16931.533035   8865.958950   6570.486064
PE12  12502.770852  24686.613296 -10516.750847   5437.120851
PE13 -22576.031723 -17138.777700  -8518.614688    409.133461
PE14   -166.600340 -15011.968268  18142.662482  -1273.604075
PE15 -12649.593300 -24619.342571  10505.845882    837.203242
PE18  -3762.898230  20323.034422 -25022.243379  -1391.786377
PE19 -17684.828752  15933.915920  17587.202127    163.141343
PE21 -18279.913992  12649.508127  19542.226760   -639.493904
PE24  13815.229972   9908.626226 -24236.450097   -657.095121
PE25  18289.928695 -12497.621236 -19631.189550   -523.074356
PE26 -18994.068856   1048.794252 -22669.219862   2335.754153
PE27 -14072.755149  -9253.234272  24348.324436     63.864253
PE30   -999.481393 -25942.002088  14232.270906   3312.071765
PE31   1622.175586  25568.208250 -14809.471391   -476.838243
PE33  -4688.528142  17612.490118 -23311.070066   -464.383620
PE36  19218.177309   -417.397656  22520.751685    462.422579
PG01  17569.761646   6842.576263  18605.351614    789.911794
PG02 -14122.835640 -22481.941992     51.008750   -559.106263
PG03  18286.057285  -5489.146116  18340.753112    -40.444271
PG04  26547.366687   1117.145024   -907.808575   -167.786691
PG05  -8789.464090 -14194.956768 -20771.495338    -29.403547
PG06  -3600.578737 -23519.960007  11819.580076     -4.480801
PG07  11857.409374  -9927.985774 -21220.564850     -1.953852
PG08  24958.104289   5659.197254  -7636.410562     -4.365058
PG09  22317.714322  -8143.285068 -11960.941694   -306.051261
PG10 -10897.131839  23639.562290   4603.076772    -25.353573
PG11  23422.973250   9797.900394   6684.407809    -70.033526
PG12 -17313.268508   1019.118119  19829.105205     21.345927
PG13 -18074.681790 -13145.490073 -14578.139606     79.320792
PG14  13462.460502 -22748.927193   2573.633026     73.776893
PG15 -25684.971689  -3281.958411  -7070.712560   -180.508739
PG16   6727.326602  14811.373429 -21124.138739   -256.214324
PG17   6620.231711 -14085.768502  21954.388848    372.394395
PG18 -10098.771776  12441.517411 -21177.469423    336.298881
PG19  -1627.420898 -14863.510449  21676.719021    -59.963354
PG20 -15395.196042  19862.452475  -8231.652695    525.438791
PG21  19496.642860  13153.267871  13454.703194     81.338973
PG22  15877.852783   3347.239399  21205.250721   -708.660185
PG23 -16530.913905  19887.562570  -6002.428231    112.883910
PG24 -19399.167273 -10078.899521  15113.839334      4.571477
PG25 -18598.074120  14451.113400  11755.004672     47.647573
PG26  -1222.005873  22504.933659 -13888.816119     20.672437
PG27  16123.933490  12325.370931 -17469.739915    -43.402552
PG28  11601.771096 -23117.958842   7007.738865    637.861233
PG29 -23545.663318   5069.306946 -11281.754078   -263.968591
PG30   4268.117269 -19693.532110 -17148.938666   -359.047532
PG31   4817.019503  24151.433590   9237.240489    -90.128570
PG32  -5322.486057  14939.468178  21372.230231     10.702960
PJ01 -30962.185326  28209.963243  10227.501063   -335.314763
PJ02 -29339.213039  26123.892709  20224.563047      0.295341
PJ03 -26885.041089  17514.506846 -22657.782110     -4.916887
PJ07 -25358.378232  33676.667643     17.507944      0.085997
PR01  22200.355364 -12475.373834  -1387.456346     72.622630
PR02   8054.897913 -14290.567398 -19522.655572    460.327549
PR03  -9726.709174  -7075.542641 -22451.414363     28.047896
PR04 -21703.578259   4211.847892 -12694.987291     67.402710
PR05 -21557.444611  12945.298413   4208.320027     63.638969
PR07  10390.417841   6691.316350  22350.840319    -41.961339
PR08  21751.272339  -4122.250843  12738.235941    -56.513023
PR09  -1724.763226  25464.009636   1053.818837     15.268888
PR12   9020.638401 -16655.190379 -17074.478895    191.632607
PR13   1816.002047 -25404.110694  -1484.984717    -48.489127
PR14  -6468.709640 -19155.587159  15558.225847     59.175321
PR15 -10872.741488  -1971.182057  23009.492503    106.177324
PR16  -8547.332105  17415.611496  16463.210432     -9.570318
PR17 -18066.514141 -16259.377521   7822.788152    385.927782
PR18 -21742.688576  -9623.080311  -9147.850061     61.063245
PR19 -14428.975096   1248.639827 -20992.032036   -125.390050
PR20   3266.440554  13846.124946 -21168.283250   -429.768928
PR21  18608.210443  16073.997046  -6722.874844   -176.050872
PR22  21572.960946   9088.053659  10238.612534    -89.162727
PR24  -3828.403507 -14446.462116  20699.715222     25.541813
EOF
